{
  "type": "FeatureCollection",
  "features": [
    {
      "type": "Feature",
      "properties": {
        "norad_id": 67123,
        "name": "STARLINK-36151",
        "group": "last-30-days",
        "lat": -41.29916587489746,
        "lon": -165.69211123154335,
        "alt_km": 285.9442477552293,
        "timestamp": "2025-12-21T05:44:50.295137+00:00",
        "meta_object_name": "STARLINK-36151",
        "meta_object_id": "2025-299X",
        "meta_epoch": "2025-12-20T22:00:01.999584",
        "meta_mean_motion": 15.97547803,
        "meta_eccentricity": 0.00017187,
        "meta_inclination": 42.9998,
        "meta_ra_of_asc_node": 266.8547,
        "meta_arg_of_pericenter": 264.883,
        "meta_mean_anomaly": 321.5418,
        "meta_ephemeris_type": 0,
        "meta_classification_type": "U",
        "meta_norad_cat_id": 67123,
        "meta_element_set_no": 999,
        "meta_rev_at_epoch": 212,
        "meta_bstar": -0.0034263816,
        "meta_mean_motion_dot": -0.01582353,
        "meta_mean_motion_ddot": 0.00074026315,
        "tle_line1": "1 67123U 25299X   25354.91668981 -.01582353  74026-3 -34264-2 0  9995",
        "tle_line2": "2 67123  42.9998 266.8547 0001718 264.8830 321.5418 15.97547803  2126"
      },
      "geometry": {
        "type": "Point",
        "coordinates": [
          -165.69211123154335,
          -41.29916587489746
        ]
      }
    },
    {
      "type": "Feature",
      "properties": {
        "norad_id": 67124,
        "name": "STARLINK-36195",
        "group": "last-30-days",
        "lat": -40.29740235954411,
        "lon": -160.68809391893637,
        "alt_km": 285.2444209515543,
        "timestamp": "2025-12-21T05:44:50.295147+00:00",
        "meta_object_name": "STARLINK-36195",
        "meta_object_id": "2025-299Y",
        "meta_epoch": "2025-12-20T22:00:01.999584",
        "meta_mean_motion": 15.97794477,
        "meta_eccentricity": 0.00017413,
        "meta_inclination": 42.9999,
        "meta_ra_of_asc_node": 266.8455,
        "meta_arg_of_pericenter": 265.9665,
        "meta_mean_anomaly": 324.1061,
        "meta_ephemeris_type": 0,
        "meta_classification_type": "U",
        "meta_norad_cat_id": 67124,
        "meta_element_set_no": 999,
        "meta_rev_at_epoch": 212,
        "meta_bstar": -0.0034107503,
        "meta_mean_motion_dot": -0.01596746,
        "meta_mean_motion_ddot": 0.00075468063,
        "tle_line1": "1 67124U 25299Y   25354.91668981 -.01596746  75468-3 -34108-2 0  9995",
        "tle_line2": "2 67124  42.9999 266.8455 0001741 265.9665 324.1061 15.97794477  2124"
      },
      "geometry": {
        "type": "Point",
        "coordinates": [
          -160.68809391893637,
          -40.29740235954411
        ]
      }
    },
    {
      "type": "Feature",
      "properties": {
        "norad_id": 67125,
        "name": "STARLINK-36219",
        "group": "last-30-days",
        "lat": -39.9416112372056,
        "lon": -159.16232614593048,
        "alt_km": 285.07639501678386,
        "timestamp": "2025-12-21T05:44:50.295159+00:00",
        "meta_object_name": "STARLINK-36219",
        "meta_object_id": "2025-299Z",
        "meta_epoch": "2025-12-20T22:00:01.999584",
        "meta_mean_motion": 15.97874499,
        "meta_eccentricity": 0.00017031,
        "meta_inclination": 42.9996,
        "meta_ra_of_asc_node": 266.8423,
        "meta_arg_of_pericenter": 263.3874,
        "meta_mean_anomaly": 327.8169,
        "meta_ephemeris_type": 0,
        "meta_classification_type": "U",
        "meta_norad_cat_id": 67125,
        "meta_element_set_no": 999,
        "meta_rev_at_epoch": 212,
        "meta_bstar": -0.0034083087,
        "meta_mean_motion_dot": -0.01602657,
        "meta_mean_motion_ddot": 0.00076048493,
        "tle_line1": "1 67125U 25299Z   25354.91668981 -.01602657  76048-3 -34083-2 0  9992",
        "tle_line2": "2 67125  42.9996 266.8423 0001703 263.3874 327.8169 15.97874499  2121"
      },
      "geometry": {
        "type": "Point",
        "coordinates": [
          -159.16232614593048,
          -39.9416112372056
        ]
      }
    },
    {
      "type": "Feature",
      "properties": {
        "norad_id": 67126,
        "name": "STARLINK-36223",
        "group": "last-30-days",
        "lat": -39.47206526050435,
        "lon": -157.2876928172753,
        "alt_km": 284.86461169190534,
        "timestamp": "2025-12-21T05:44:50.295186+00:00",
        "meta_object_name": "STARLINK-36223",
        "meta_object_id": "2025-299AA",
        "meta_epoch": "2025-12-20T22:00:01.999584",
        "meta_mean_motion": 15.97974751,
        "meta_eccentricity": 0.00016655,
        "meta_inclination": 42.9997,
        "meta_ra_of_asc_node": 266.8387,
        "meta_arg_of_pericenter": 260.109,
        "meta_mean_anomaly": 332.5011,
        "meta_ephemeris_type": 0,
        "meta_classification_type": "U",
        "meta_norad_cat_id": 67126,
        "meta_element_set_no": 999,
        "meta_rev_at_epoch": 212,
        "meta_bstar": -0.0034032829,
        "meta_mean_motion_dot": -0.01609188,
        "meta_mean_motion_ddot": 0.00076702533,
        "tle_line1": "1 67126U 25299AA  25354.91668981 -.01609188  76703-3 -34033-2 0  9992",
        "tle_line2": "2 67126  42.9997 266.8387 0001665 260.1090 332.5011 15.97974751  2125"
      },
      "geometry": {
        "type": "Point",
        "coordinates": [
          -157.2876928172753,
          -39.47206526050435
        ]
      }
    },
    {
      "type": "Feature",
      "properties": {
        "norad_id": 67127,
        "name": "STARLINK-36164",
        "group": "last-30-days",
        "lat": -39.03310244922922,
        "lon": -155.65611941244947,
        "alt_km": 284.50925244115115,
        "timestamp": "2025-12-21T05:44:50.295198+00:00",
        "meta_object_name": "STARLINK-36164",
        "meta_object_id": "2025-299AB",
        "meta_epoch": "2025-12-20T22:00:01.999584",
        "meta_mean_motion": 15.98067128,
        "meta_eccentricity": 0.00017182,
        "meta_inclination": 42.9996,
        "meta_ra_of_asc_node": 266.8357,
        "meta_arg_of_pericenter": 267.1517,
        "meta_mean_anomaly": 326.6995,
        "meta_ephemeris_type": 0,
        "meta_classification_type": "U",
        "meta_norad_cat_id": 67127,
        "meta_element_set_no": 999,
        "meta_rev_at_epoch": 212,
        "meta_bstar": -0.0034138141,
        "meta_mean_motion_dot": -0.01622373,
        "meta_mean_motion_ddot": 0.00077942991,
        "tle_line1": "1 67127U 25299AB  25354.91668981 -.01622373  77943-3 -34138-2 0  9997",
        "tle_line2": "2 67127  42.9996 266.8357 0001718 267.1517 326.6995 15.98067128  2129"
      },
      "geometry": {
        "type": "Point",
        "coordinates": [
          -155.65611941244947,
          -39.03310244922922
        ]
      }
    },
    {
      "type": "Feature",
      "properties": {
        "norad_id": 67128,
        "name": "STARLINK-35685",
        "group": "last-30-days",
        "lat": -37.54186942163237,
        "lon": -150.76117663469518,
        "alt_km": 284.2457653546153,
        "timestamp": "2025-12-21T05:44:50.295208+00:00",
        "meta_object_name": "STARLINK-35685",
        "meta_object_id": "2025-299AC",
        "meta_epoch": "2025-12-20T22:00:01.999584",
        "meta_mean_motion": 15.98104446,
        "meta_eccentricity": 0.00017853,
        "meta_inclination": 42.9994,
        "meta_ra_of_asc_node": 266.8253,
        "meta_arg_of_pericenter": 261.9915,
        "meta_mean_anomaly": 335.9098,
        "meta_ephemeris_type": 0,
        "meta_classification_type": "U",
        "meta_norad_cat_id": 67128,
        "meta_element_set_no": 999,
        "meta_rev_at_epoch": 212,
        "meta_bstar": -0.0031929648,
        "meta_mean_motion_dot": -0.01521876,
        "meta_mean_motion_ddot": 0.00069303066,
        "tle_line1": "1 67128U 25299AC  25354.91668981 -.01521876  69303-3 -31930-2 0  9992",
        "tle_line2": "2 67128  42.9994 266.8253 0001785 261.9915 335.9098 15.98104446  2123"
      },
      "geometry": {
        "type": "Point",
        "coordinates": [
          -150.76117663469518,
          -37.54186942163237
        ]
      }
    },
    {
      "type": "Feature",
      "properties": {
        "norad_id": 67129,
        "name": "STARLINK-36214",
        "group": "last-30-days",
        "lat": -38.47337167965582,
        "lon": -153.71487201142403,
        "alt_km": 284.3020572703372,
        "timestamp": "2025-12-21T05:44:50.295219+00:00",
        "meta_object_name": "STARLINK-36214",
        "meta_object_id": "2025-299AD",
        "meta_epoch": "2025-12-20T22:00:01.999584",
        "meta_mean_motion": 15.98174521,
        "meta_eccentricity": 0.00016602,
        "meta_inclination": 42.9995,
        "meta_ra_of_asc_node": 266.8317,
        "meta_arg_of_pericenter": 263.1994,
        "meta_mean_anomaly": 332.149,
        "meta_ephemeris_type": 0,
        "meta_classification_type": "U",
        "meta_norad_cat_id": 67129,
        "meta_element_set_no": 999,
        "meta_rev_at_epoch": 212,
        "meta_bstar": -0.0034202223,
        "meta_mean_motion_dot": -0.01635042,
        "meta_mean_motion_ddot": 0.00079161297,
        "tle_line1": "1 67129U 25299AD  25354.91668981 -.01635042  79161-3 -34202-2 0  9992",
        "tle_line2": "2 67129  42.9995 266.8317 0001660 263.1994 332.1490 15.98174521  2125"
      },
      "geometry": {
        "type": "Point",
        "coordinates": [
          -153.71487201142403,
          -38.47337167965582
        ]
      }
    }
  ]
}